H1 CPF  1  DLR 2021 10 01 10  7742 technosat            
H2  1704205 6203    42829 2021 10 01 00 00 00 2021 10 08 00 00 00    60 1 1  0 0 0
H9
10 0 59490  57600.000000  0        163111.283      -1925370.956      -6715124.561
10 0 59490  57660.000000  0        -26314.907      -2321454.679      -6591027.199
10 0 59490  57720.000000  0       -219047.430      -2706197.331      -6439276.943
10 0 59490  57780.000000  0       -414177.084      -3077969.884      -6260506.686
10 0 59490  57840.000000  0       -610770.375      -3435204.158      -6055461.230
10 0 59490  57900.000000  0       -807873.800      -3776399.332      -5824994.501
10 0 59490  57960.000000  0      -1004518.294      -4100128.207      -5570066.334
10 0 59490  58020.000000  0      -1199723.828      -4405043.231      -5291738.838
10 0 59490  58080.000000  0      -1392504.140      -4689882.200      -4991172.312
10 0 59490  58140.000000  0      -1581871.560      -4953473.619      -4669620.740
10 0 59490  58200.000000  0      -1766841.930      -5194741.692      -4328426.888
10 0 59490  58260.000000  0      -1946439.569      -5412710.917      -3969016.992
10 0 59490  58320.000000  0      -2119702.266      -5606510.254      -3592895.081
10 0 59490  58380.000000  0      -2285686.276      -5775376.859      -3201636.943
10 0 59490  58440.000000  0      -2443471.301      -5918659.365      -2796883.749
10 0 59490  58500.000000  0      -2592165.436      -6035820.696      -2380335.353
10 0 59490  58560.000000  0      -2730910.032      -6126440.383      -1953743.272
10 0 59490  58620.000000  0      -2858884.465      -6190216.355      -1518903.381
10 0 59490  58680.000000  0      -2975310.777      -6226966.179      -1077648.339
10 0 59490  58740.000000  0      -3079458.139      -6236627.713       -631839.794
10 0 59490  58800.000000  0      -3170647.106      -6219259.178       -183360.440
10 0 59490  58860.000000  0      -3248253.648      -6175038.672        265894.047
10 0 59490  58920.000000  0      -3311712.949      -6104263.120        714023.168
10 0 59490  58980.000000  0      -3360522.933      -6007346.661       1159129.816
10 0 59490  59040.000000  0      -3394247.495      -5884818.455       1599328.513
10 0 59490  59100.000000  0      -3412519.401      -5737319.909       2032753.602
10 0 59490  59160.000000  0      -3415042.862      -5565601.385       2457567.311
10 0 59490  59220.000000  0      -3401595.752      -5370518.418       2871967.711
10 0 59490  59280.000000  0      -3372031.461      -5153027.436       3274196.519
10 0 59490  59340.000000  0      -3326280.382      -4914181.023       3662546.690
10 0 59490  59400.000000  0      -3264351.011      -4655122.745       4035369.781
10 0 59490  59460.000000  0      -3186330.661      -4377081.546       4391083.037
10 0 59490  59520.000000  0      -3092385.797      -4081365.766       4728176.151
10 0 59490  59580.000000  0      -2982761.993      -3769356.847       5045217.685
10 0 59490  59640.000000  0      -2857783.450      -3442502.724       5340861.167
10 0 59490  59700.000000  0      -2717852.116      -3102310.963       5613850.745
10 0 59490  59760.000000  0      -2563446.450      -2750341.703       5863026.446
10 0 59490  59820.000000  0      -2395119.816      -2388200.434       6087329.039
10 0 59490  59880.000000  0      -2213498.509      -2017530.600       6285804.506
10 0 59490  59940.000000  0      -2019279.394      -1640006.070       6457608.100
10 0 59490  60000.000000  0      -1813227.171      -1257323.428       6602007.894
10 0 59490  60060.000000  0      -1596171.291       -871194.208       6718387.751
10 0 59490  60120.000000  0      -1369002.616       -483337.212       6806249.736
10 0 59490  60180.000000  0      -1132669.825        -95470.939       6865216.188
10 0 59490  60240.000000  0       -888175.485        290694.023       6895031.428
10 0 59490  60300.000000  0       -636571.803        673462.601       6895562.923
10 0 59490  60360.000000  0       -378956.084       1051162.736       6866801.920
10 0 59490  60420.000000  0       -116465.958       1422152.726       6808863.610
10 0 59490  60480.000000  0        149725.656       1784828.461       6721986.787
10 0 59490  60540.000000  0        418415.829       2137630.451       6606532.949
10 0 59490  60600.000000  0        688377.041       2479050.580       6462984.914
10 0 59490  60660.000000  0        958362.803       2807638.645       6291945.012
10 0 59490  60720.000000  0       1227113.420       3122008.686       6094132.762
10 0 59490  60780.000000  0       1493361.893       3420845.030       5870382.039
10 0 59490  60840.000000  0       1755839.931       3702908.010       5621637.750
10 0 59490  60900.000000  0       2013284.053       3967039.352       5348952.045
10 0 59490  60960.000000  0       2264441.813       4212167.225       5053480.023
10 0 59490  61020.000000  0       2508078.006       4437310.846       4736474.886
10 0 59490  61080.000000  0       2742980.812       4641584.604       4399282.672
10 0 59490  61140.000000  0       2967967.876       4824201.756       4043336.621
10 0 59490  61200.000000  0       3181892.325       4984477.703       3670151.180
10 0 59490  61260.000000  0       3383648.786       5121832.907       3281315.649
10 0 59490  61320.000000  0       3572179.342       5235795.365       2878487.221
10 0 59490  61380.000000  0       3746479.205       5326002.281       2463383.500
10 0 59490  61440.000000  0       3905601.979       5392201.061       2037774.949
10 0 59490  61500.000000  0       4048664.715       5434249.965       1603477.243
10 0 59490  61560.000000  0       4174852.812       5452118.376       1162343.309
10 0 59490  61620.000000  0       4283424.595       5445886.419        716254.951
10 0 59490  61680.000000  0       4373715.414       5415743.823        267114.371
10 0 59490  61740.000000  0       4445141.385       5361988.251       -183164.237
10 0 59490  61800.000000  0       4497202.799       5285023.173       -632663.130
10 0 59490  61860.000000  0       4529487.100       5185355.235      -1079469.502
10 0 59490  61920.000000  0       4541671.408       5063591.097      -1521683.940
10 0 59490  61980.000000  0       4533524.567       4920433.807      -1957428.760
10 0 59490  62040.000000  0       4504908.756       4756678.721      -2384856.207
10 0 59490  62100.000000  0       4455780.632       4573209.004      -2802156.499
10 0 59490  62160.000000  0       4386191.962       4370990.727      -3207565.646
10 0 59490  62220.000000  0       4296289.742       4151067.559      -3599372.983
10 0 59490  62280.000000  0       4186315.890       3914555.158      -3975928.306
10 0 59490  62340.000000  0       4056606.534       3662635.346      -4335648.739
10 0 59490  62400.000000  0       3907590.829       3396549.984      -4677025.276
10 0 59490  62460.000000  0       3739789.319       3117594.652      -4998628.902
10 0 59490  62520.000000  0       3553811.875       2827112.192      -5299116.341
10 0 59490  62580.000000  0       3350355.202       2526486.084      -5577235.359
10 0 59490  62640.000000  0       3130199.999       2217133.755      -5831829.608
10 0 59490  62700.000000  0       2894207.753       1900499.800      -6061843.065
10 0 59490  62760.000000  0       2643317.129       1578049.201      -6266323.987
10 0 59490  62820.000000  0       2378540.074       1251260.578      -6444428.388
10 0 59490  62880.000000  0       2100957.632        921619.474      -6595423.072
10 0 59490  62940.000000  0       1811715.506        590611.730      -6718688.227
10 0 59490  63000.000000  0       1512019.378        259716.971      -6813719.672
10 0 59490  63060.000000  0       1203129.852        -69597.892      -6880130.715
10 0 59490  63120.000000  0        886357.120       -395885.042      -6917653.391
10 0 59490  63180.000000  0        563055.506       -717721.916      -6926139.230
10 0 59490  63240.000000  0        234617.826      -1033717.180      -6905559.656
10 0 59490  63300.000000  0        -97530.423      -1342516.502      -6856005.954
10 0 59490  63360.000000  0       -431937.044      -1642808.116      -6777688.884
10 0 59490  63420.000000  0       -767129.333      -1933328.233      -6670937.879
10 0 59490  63480.000000  0      -1101620.395      -2212866.233      -6536199.749
10 0 59490  63540.000000  0      -1433915.549      -2480269.598      -6374036.916
10 0 59490  63600.000000  0      -1762518.784      -2734448.532      -6185125.245
10 0 59490  63660.000000  0      -2085939.292      -2974380.302      -5970251.503
10 0 59490  63720.000000  0      -2402698.060      -3199113.324      -5730310.426
10 0 59490  63780.000000  0      -2711334.528      -3407770.971      -5466301.377
10 0 59490  63840.000000  0      -3010413.285      -3599555.083      -5179324.538
10 0 59490  63900.000000  0      -3298530.729      -3773749.095      -4870576.616
10 0 59490  63960.000000  0      -3574321.613      -3929720.794      -4541346.172
10 0 59490  64020.000000  0      -3836465.512      -4066924.708      -4193008.573
10 0 59490  64080.000000  0      -4083693.174      -4184904.132      -3827020.564
10 0 59490  64140.000000  0      -4314792.752      -4283292.754      -3444914.464
10 0 59490  64200.000000  0      -4528615.834      -4361815.889      -3048291.968
10 0 59490  64260.000000  0      -4724083.242      -4420291.262      -2638817.606
10 0 59490  64320.000000  0      -4900190.578      -4458629.365      -2218211.907
10 0 59490  64380.000000  0      -5056013.488      -4476833.385      -1788244.264
10 0 59490  64440.000000  0      -5190712.588      -4474998.701      -1350725.538
10 0 59490  64500.000000  0      -5303538.035      -4453311.934       -907500.432
10 0 59490  64560.000000  0      -5393833.736      -4412049.567       -460439.689
10 0 59490  64620.000000  0      -5461041.146      -4351576.147        -11432.100
10 0 59490  64680.000000  0      -5504702.598      -4272342.053        437623.629
10 0 59490  64740.000000  0      -5524464.171      -4174880.835        884827.100
99
